ONEWEB-0102             
1 47258U 20100A   25339.18743749 -.00000040  00000+0 -14547-3 0  9993
2 47258  87.8945  29.2252 0001652  93.2650 266.8668 13.12444919239284
ONEWEB-0109             
1 47259U 20100B   25339.19554844  .00000222  00000+0  58235-3 0  9993
2 47259  87.8949  29.1919 0001711  95.0382 265.0942 13.12444937239114
ONEWEB-0110             
1 47260U 20100C   25339.22150749  .00000422  00000+0  11388-2 0  9994
2 47260  87.8950  29.1707 0002020  95.4369 264.6990 13.12442083239282
ONEWEB-0111             
1 47261U 20100D   25339.17608058 -.00000330  00000+0 -95212-3 0  9999
2 47261  87.8952  29.1977 0001746  97.1988 262.9339 13.12444133239112
ONEWEB-0114             
1 47262U 20100E   25339.13065782  .00000448  00000+0  12099-2 0  9996
2 47262  87.8949  29.2014 0001444  92.2361 267.8933 13.12444577239068
ONEWEB-0117             
1 47263U 20100F   25339.19879075  .00000294  00000+0  78136-3 0  9995
2 47263  87.8948  29.1851 0001769  98.2426 261.8903 13.12444986239081
ONEWEB-0118             
1 47264U 20100G   25339.15499315  .00000013  00000+0  47688-6 0  9997
2 47264  87.8950  29.1934 0001403 103.5194 256.6091 13.12442766239279
ONEWEB-0119             
1 47265U 20100H   25339.18256562 -.00000181  00000+0 -53740-3 0  9997
2 47265  87.8942  29.2231 0001779  96.7350 263.3981 13.12444468239257
